0 CBERS 1 DEB
1 39596U 99057TA  21211.73898543  .00003186  00000-0  58246-3 0  9992
2 39596  98.3846 211.0209 0004473 164.6915 195.4424 14.66617971409142
0 METEOR 2-5 DEB
1 39602U 79095CD  21207.47902342  .00001761  00000-0  80646-3 0  9995
2 39602  81.2073 126.5391 0022226 116.8496 243.4957 14.20896294376565
0 METEOR 2-5 DEB
1 39603U 79095CE  21211.13611400  .00000510  00000-0  25654-3 0  9995
2 39603  81.2148 142.2684 0008921 149.0266 211.1435 14.15139786389936
0 METEOR 2-5 DEB
1 39604U 79095CF  21211.62049234  .00006100  00000-0  67295-3 0  9998
2 39604  81.2035 340.1148 0010787  68.0557 304.8008 14.87335156973744
0 METEOR 2-5 DEB
1 39605U 79095CG  21211.72173997  .00000982  00000-0  45706-3 0  9999
2 39605  81.1975 115.7738 0014064 122.1774 268.9409 14.19824072397585
0 METEOR 2-5 DEB
1 39606U 79095CH  21207.06330175  .00000526  00000-0  23922-3 0  9995
2 39606  81.1941 111.4860 0016815  69.3411 290.9567 14.20387063393407
0 METEOR 2-5 DEB
1 39608U 79095CK  21207.48821237  .00001253  00000-0  59421-3 0  9998
2 39608  81.2059 123.9202 0009374 155.6417 204.5203 14.19013186474548
0 OPS 4682 DEB
1 39609U 65027FS  21211.58523940 -.00000059  00000-0 -22885-3 0  9994
2 39609  90.2757 333.1052 0028544  73.1736 299.3597 12.97074415465746
0 ERS 1 DEB
1 39610U 91050S   21212.42451393  .00002268  00000-0  53258-3 0  9997
2 39610  98.4907 195.6314 0025616 343.8981  16.1399 14.55267374396071
0 SJ-11-06
1 39624U 14014A   21212.39786876  .00000076  00000-0  26018-4 0  9990
2 39624  98.1843 262.0107 0014702 159.3868 200.7935 14.59060952390819
0 CZ-2C R/B
1 39625U 14014B   21212.01911687 -.00000052  00000-0  22062-5 0  9991
2 39625  98.3412 126.0090 0140416 194.9393 164.7662 15.01284169401314
0 CZ-2C DEB
1 39626U 14014C   21211.82776330  .00000514  00000-0  12518-3 0  9999
2 39626  98.0579 173.4584 0102513 213.9761 145.4844 14.53718385388531
0 CZ-2C DEB
1 39627U 14014D   21211.92945944  .00000256  00000-0  11142-3 0  9995
2 39627  98.0891  84.7951 0178739 205.4411 153.7890 14.23310508380618
0 CZ-2C DEB
1 39628U 14014E   21211.97145700  .00000641  00000-0  15307-3 0  9998
2 39628  98.2768 295.2022 0101028 293.5201  65.5406 14.54151818388784
0 CZ-2C DEB
1 39629U 14014F   21211.92218391  .00000243  00000-0  10643-3 0  9997
2 39629  98.4379 185.9055 0174248 260.2611  97.8851 14.24460633380943
0 DMSP 5D-3 F19 (USA 249)
1 39630U 14015A   21212.49064324 -.00000017  00000-0  13969-4 0  9993
2 39630  98.7465 220.6774 0009372 245.9220 114.0973 14.13991220378112
0 DMSP 5D-3 F19 DEB
1 39632U 14015C   21211.75066972  .00000370  00000-0  20403-3 0  9995
2 39632  98.7134 227.5415 0003412 214.6771 145.4182 14.17448840378612
0 DMSP 5D-3 F19 DEB
1 39633U 14015D   21212.50995960  .00000389  00000-0  21500-3 0  9997
2 39633  98.7199 227.6707 0003802 201.4346 158.6671 14.17057962378625
0 SENTINEL 1A
1 39634U 14016A   21212.47047144 -.00000073  00000-0 -58378-5 0  9994
2 39634  98.1821 219.6161 0001400  81.1508 278.9851 14.59197365390215
0 COSMOS 1867 COOLANT
1 39637U 87060E   21211.83075098 -.00000013  00000-0  32570-4 0  9992
2 39637  65.0119 329.0629 0021233 272.2833  87.5821 14.32057241384028
0 COSMOS 1867 COOLANT
1 39638U 87060F   21211.79202587 -.00000026  00000-0  27653-4 0  9993
2 39638  65.0109 334.9869 0021171 278.3808  81.4876 14.31549080383678
0 COSMOS 1867 COOLANT
1 39639U 87060G   21211.75400903 -.00000009  00000-0  34306-4 0  9996
2 39639  65.0082 333.6387 0020182 273.0297  86.8478 14.31606759382263
0 COSMOS 1867 COOLANT
1 39640U 87060H   21211.77928271 -.00000020  00000-0  29729-4 0  9999
2 39640  65.0118 327.9100 0020912 270.5624  89.3065 14.32159203382573
0 COSMOS 1867 COOLANT
1 39641U 87060J   21212.32131982 -.00000005  00000-0  35523-4 0  9999
2 39641  65.0084 331.2733 0021304 274.8882  84.9771 14.31681332134140
0 COSMOS 1867 COOLANT
1 39642U 87060K   21211.64780457 -.00000021  00000-0  29578-4 0  9992
2 39642  65.0115 335.9922 0021289 271.8094  88.0552 14.31514443382247
0 COSMOS 1867 COOLANT
1 39643U 87060L   21211.61258305  .00000006  00000-0  39536-4 0  9999
2 39643  65.0127 328.9334 0020519 271.5108  88.3627 14.32180369382308
0 COSMOS 1867 COOLANT
1 39644U 87060M   21211.73236711  .00000010  00000-0  40705-4 0  9995
2 39644  65.0117 327.7322 0020592 270.4934  89.3791 14.32230647382340
0 COSMOS 1867 COOLANT
1 39645U 87060N   21211.85127791 -.00000021  00000-0  29777-4 0  9995
2 39645  65.0133 333.1661 0020947 273.9525  85.9165 14.31744094382234
0 COSMOS 1867 COOLANT
1 39646U 87060P   21211.73761939 -.00000018  00000-0  30564-4 0  9993
2 39646  65.0117 332.7631 0020655 272.4335  87.4384 14.31768279382284
0 COSMOS 1867 COOLANT
1 39647U 87060Q   21211.82679446 -.00000011  00000-0  33523-4 0  9996
2 39647  65.0118 336.3048 0021033 270.6463  89.2212 14.31459117382155
0 COSMOS 1867 COOLANT
1 39654U 87060R   21211.62100952 -.00000004  00000-0  36126-4 0  9997
2 39654  65.0089 334.2616 0021471 273.4202  86.4426 14.31606766381177
0 COSMOS 1867 COOLANT
1 39655U 87060S   21212.07436276 -.00000031  00000-0  26059-4 0  9993
2 39655  65.0079 331.5498 0020136 274.8654  85.0131 14.31698383382117
0 COSMOS 1867 COOLANT
1 39656U 87060T   21211.70372108 -.00000020  00000-0  30052-4 0  9992
2 39656  65.0093 331.0217 0021052 274.2084  85.6595 14.31859617381317
0 COSMOS 1867 COOLANT
1 39657U 87060U   21211.77218820 -.00000020  00000-0  29999-4 0  9998
2 39657  65.0099 330.9960 0020619 277.3051  82.5690 14.31859821381985
0 COSMOS 1867 COOLANT
1 39658U 87060V   21210.79993059 -.00000000  00000-0  37218-4 0  9995
2 39658  65.0126 332.7024 0021372 272.0399  87.8239 14.32013580382255
0 COSMOS 1867 COOLANT
1 39659U 87060W   21211.60775644 -.00000007  00000-0  34662-4 0  9992
2 39659  65.0122 330.1306 0021163 277.5836  82.2844 14.32024284381287
0 COSMOS 1867 COOLANT
1 39660U 87060X   21211.93697735 -.00000029  00000-0  26816-4 0  9990
2 39660  65.0107 333.2066 0021183 273.1063  86.7597 14.31676900381297
0 COSMOS 1867 COOLANT
1 39661U 87060Y   21211.77660456 -.00000027  00000-0  27094-4 0  9990
2 39661  65.0109 329.9165 0020907 272.2010  87.6680 14.31973563381295
0 COSMOS 1867 COOLANT
1 39662U 87060Z   21211.61089817 -.00000004  00000-0  35975-4 0  9992
2 39662  65.0105 330.5729 0020413 277.3612  82.5152 14.31969425382259
0 COSMOS 1867 COOLANT
1 39663U 87060AA  21212.08700604  .00000000  00000-0  37449-4 0  9992
2 39663  65.0109 332.0182 0020905 276.1812  83.6891 14.31764205382351
0 COSMOS 1867 COOLANT
1 39664U 87060AB  21211.80798816 -.00000022  00000-0  29351-4 0  9992
2 39664  65.0081 332.0221 0020371 276.0182  83.8581 14.31728191381239
0 COSMOS 1867 COOLANT
1 39665U 87060AC  21211.85472596 -.00000025  00000-0  27951-4 0  9999
2 39665  65.0083 331.7712 0020997 276.7372  83.1323 14.31743672371962
0 COSMOS 1867 COOLANT
1 39666U 87060AD  21211.93662351 -.00000021  00000-0  29457-4 0  9998
2 39666  65.0121 329.0691 0020855 277.1094  82.7620 14.32050857381335
0 COSMOS 1867 COOLANT
1 39667U 87060AE  21211.61440824 -.00000005  00000-0  35425-4 0  9997
2 39667  65.0153 331.9176 0021197 276.4676  83.3995 14.31943753381325
0 COSMOS 1867 COOLANT
1 39668U 87060AF  21211.61355530 -.00000008  00000-0  34399-4 0  9999
2 39668  65.0120 331.0072 0020632 272.0948  87.7774 14.31944483381260
0 COSMOS 1867 COOLANT
1 39669U 87060AG  21211.61243879 -.00000006  00000-0  34919-4 0  9998
2 39669  65.0155 332.4281 0021137 275.0799  84.7873 14.31912743381311
0 COSMOS 1867 COOLANT
1 39670U 87060AH  21211.81329102 -.00000010  00000-0  33691-4 0  9997
2 39670  65.0124 330.9627 0021032 277.0618  82.8075 14.31915329381284
0 COSMOS 1867 COOLANT
1 39671U 87060AJ  21211.85491334 -.00000013  00000-0  32517-4 0  9998
2 39671  65.0136 331.8891 0021058 274.5783  85.2896 14.31854543381271
0 COSMOS 1867 COOLANT
1 39672U 87060AK  21211.72216882 -.00000017  00000-0  31189-4 0  9996
2 39672  65.0077 331.5815 0020320 274.1746  85.7016 14.31809085381297
0 COSMOS 1867 COOLANT
1 39673U 87060AL  21211.76120228  .00000000  00000-0  37437-4 0  9992
2 39673  65.0135 333.7987 0020760 276.7194  83.1528 14.31721067381574
0 COSMOS 1867 COOLANT
1 39674U 87060AM  21211.60187429  .00000008  00000-0  40369-4 0  9998
2 39674  65.0123 333.7962 0021122 273.6645  86.2024 14.31789742381260
0 COSMOS 1867 COOLANT
1 39675U 87060AN  21211.82819760  .00000019  00000-0  44355-4 0  9994
2 39675  65.0097 331.1830 0020412 274.2868  85.5884 14.31873158381320
0 COSMOS 1867 COOLANT
1 39676U 87060AP  21211.83950729 -.00000005  00000-0  35441-4 0  9999
2 39676  65.0123 332.3809 0021237 276.5747  83.2920 14.31792096381256
0 COSMOS 1867 COOLANT
1 39677U 87060AQ  21211.73385830 -.00000023  00000-0  28855-4 0  9995
2 39677  65.0072 331.9248 0021057 275.3149  84.5533 14.31730127381223
0 EGYPTSAT 2
1 39678U 14021A   21212.35843690 -.00000103  00000-0  17705-4 0  9996
2 39678  51.6183 232.7169 0000669  89.8131 270.2876 14.54226399387634
0 SL-4 R/B
1 39679U 14021B   21212.48787287  .00000158  00000-0  25514-4 0  9996
2 39679  51.6180   8.3588 0169256 283.9191  74.3005 15.07042159401010
0 COSMOS 921 DEB
1 39690U 77055C   21211.92558078  .00000898  00000-0  67690-4 0  9999
2 39690  75.8285  59.6447 0030785 130.4371 293.8542 15.03028222399246
0 SL-8 DEB
1 39691U 91009DE  21210.61965513  .00000466  00000-0  44150-2 0  9991
2 39691  74.0583 294.8114 0143582 304.1622  54.5868 12.21627044302175
0 SL-8 DEB
1 39692U 91009DF  21211.52051142  .00000032  00000-0  35087-3 0  9996
2 39692  74.0910 253.8454 0097961  89.4275 271.7993 12.38196722329205
0 SL-8 DEB
1 39693U 91009DG  21209.80809194 -.00000008  00000-0  69495-4 0  9998
2 39693  74.0314 243.1835 0130103 287.8121  70.8756 12.20840437324850
0 SL-8 DEB
1 39697U 91009DL  21210.64805628  .00000038  00000-0  49853-3 0  9991
2 39697  74.0576 281.6052 0145534 278.9458  79.5127 12.20645653324749
0 SL-8 DEB
1 39698U 91009DM  21211.89950414  .00000289  00000-0  27521-2 0  9999
2 39698  74.0461 277.0693 0183167 289.5486 185.9401 12.21112562324742
0 SL-8 DEB
1 39699U 91009DN  21211.23660430  .00000008  00000-0  21539-3 0  9997
2 39699  74.0965  55.1855 0144878 359.0107   1.0618 12.16930090813273
